STARLINK-2398
1 27918C 21021BL  21325.06583488  .00001645  00000-0  11021-3 0  3257
2 27918  53.0545 117.9304 0001505  81.8033 309.1703 15.06394370    14
